#dP2022  2  5  0  0  0.00000000      96 __u+U ITR00 FIT  IAC
## 2195 518400.00000000   900.00000000 59615 0.0000000000000
+  125   C01C02C03C04C05C06C07C08C09C10C11C12C13C14C16C19C20
+        C21C22C23C24C25C26C27C28C29C30C32C33C34C35C36C37C38
+        C39C40C41C42C43C44C45C46C60E01E02E03E04E05E07E08E09
+        E11E12E13E14E15E18E19E21E24E25E26E27E30E31E33E36G01
+        G02G03G04G05G06G07G08G09G10G11G12G13G14G15G16G17G18
+        G19G20G21G22G23G24G25G26G27G28G29G30G31G32J01J02J03
+        R01R02R03R04R05R06R07R08R09R10R11R12R13R14R15R17R18
+        R19R20R21R22R23R24  0  0  0  0  0  0  0  0  0  0  0
++        15 14 15 15 14  9  9  9  8  8  9  8  8  8  9  6  7
++         7  6  7  7  7  7  7  7  7  7  7  7  7  7  7  8  8
++         8  8  7  7  7  7  7  7 15  4  4  4  5  4  4  4  4
++         4  4  4  4  4  4  0  4  4  4  3  4  5  5  4  5  3
++         4  3  4  4  4  4  4  4  4  4  4  4  3  4  4  3  4
++         3  4  3  4  4  3  3  4  4  4  4  4  3  3  8  8  8
++         7  6  6  5  5 13  6  6  6 13  8  6  7  6  6  6  6
++         7  7  6  8 13  6  0  0  0  0  0  0  0  0  0  0  0
%c M  cc GPS ccc cccc cccc cccc cccc ccccc ccccc ccccc ccccc
%c cc cc ccc ccc cccc cccc cccc cccc ccccc ccccc ccccc ccccc
%f  0.0000000  0.000000000  0.00000000000  0.000000000000000
%f  0.0000000  0.000000000  0.00000000000  0.000000000000000
%i    0    0    0    0      0      0      0      0         0
%i    0    0    0    0      0      0      0      0         0
/* INFORMATION & ANALYSIS CENTER (IAC)            RAPID DATA
/* S/V CLOCKS ARE ALIGNED TO GNSS TIME                      
/* G:C1WC2W R:C1PC2P E:C1XC5X C:C2IC6I J:C1CC2S             
/* PCV:IGS14_2194 OL/AL:FES2004  NONE     YN ORB:CoN CLK:CoN
*  2022 02 05 20 45  0.00000000
PC01 -34352.313535  24409.610819    127.711590   -159.895241
PC02   4357.593633  41971.259512   1237.966069    642.150004
PC03 -14865.969550  39469.741534    962.243511    742.461488
PC04 -39624.455828  14363.561062   -159.357294   -337.203225
PC05  21853.115497  36065.612644   1473.341481   -493.934968
PC06  -7712.569695  40229.306017  10433.924672      0.251254
PC07  -6348.217576  26354.920940 -32273.078967    -17.118753
PC08 -19754.795085  28385.609110  24022.220431    113.259975
PC09  -3098.698656  42299.669448   1499.441619   -497.342065
PC10   1508.967985  28346.171001 -30812.815297    139.877284
PC11  -1871.873881  27726.250238  -2310.773076   -226.167037
PC12 -11781.524962  17860.503527 -17868.413979   -435.944510
PC13 -12003.785892  28917.721155  28239.503117   -125.317567
PC14   2431.187024  18056.017407  21145.967423    458.437942
PC16  -8414.833515  39607.784322  12351.932257     75.074440
PC19 -12630.671457 -19307.791682 -15680.481831    901.056678
PC20   6030.629851 -14682.775017 -22937.356019   -817.159310
PC21 -22253.310614    890.147445  16843.450890   -957.889835
PC22 -24691.047875 -12996.916720    931.881313   -957.847932
PC23  19276.510972   4954.635149 -19567.806725   -966.877715
PC24 -17092.463887  19176.517548 -10880.170553   -943.771242
PC25   2913.507848  16834.050709 -22071.505778   -783.756424
PC26 -24983.922681  11284.710678   5093.947939    783.292949
PC27  15108.563638  -8457.886762  21864.489287    672.795164
PC28  14151.889615  12642.085540  20466.371442     29.310449
PC29  -5773.014245 -26429.903570  -6838.058280    511.194665
PC30   6790.163032 -24647.005883  11154.397113    492.732494
PC32  22266.385529  -1011.806845 -16771.571272   -962.810157
PC33  12608.560477  19264.135679  15767.640768   -955.815609
PC34  -6283.459556  25172.339421 -10320.147719   -475.592914
PC35 -14455.984405 -12865.310858 -20096.380556    126.276771
PC36  -1973.668865 -17128.359632  21960.333617   -892.799306
PC37  25358.107850  -9946.018391  -6122.947066   -964.973316
PC38 -23879.424361  29635.208564  18007.025317    209.338164
PC39  -9793.026182  36958.217538  17963.046890     34.750564
PC40  -9425.917982  20708.268602 -35501.314573    241.892687
PC41  24585.594491  13200.883513   -439.586348   -932.711991
PC42  -7094.984724  14220.323082  22982.982695   -930.076620
PC43   5287.688483  26704.872637   6193.942643   -943.538882
PC44 -14985.749178   8804.614257 -21846.863138    555.281464
PC45 -19360.009177  -4679.735734  19529.712808    672.846038
PC46  16063.866908 -19415.710212  12031.123418   -153.031742
PC60   7286.389228  41532.595770    -25.289189     -0.269837
PE01  24093.109678   9194.628446 -14547.110058   -573.450618
PE02 -24174.001432  -9107.608605  14423.455693    278.346556
PE03 -20332.462453 -18882.607336  10313.425831   -524.683360
PE04  19032.693009    321.189774 -22665.604282   -958.354589
PE05  -9701.119291 -26692.851359  -8334.618369   -211.814708
PE07  -6432.727012  18866.595586  21883.936908   -636.009538
PE08 -18755.346341    125.487959  22899.898434   5860.201441
PE09   6058.372797 -19000.060993 -21876.339701   5370.314278
PE11  14993.785689 -25414.870457   2208.847427   4519.134489
PE12  19757.087515 -10351.489884  19454.809791   4774.022434
PE13 -15252.419198  25211.496130  -2855.057421    426.292712
PE14 -21966.629034 -15045.209927 -18466.232963  -1735.486734
PE15 -19663.470045  10324.943144 -19560.303059    765.040463
PE18  15489.536747  12568.039765  12516.681730  -1827.044439
PE19      0.000000      0.000000      0.000000 999999.999999
PE21   6197.261809  16138.842732 -24033.361338   -715.463445
PE24  17561.487755 -13751.706486  19458.373982  -1374.645017
PE25  -5879.721423 -16179.449419  24078.896473   -562.654377
PE26  -1098.809534  24795.476285  16139.759948   -771.629897
PE27 -16260.516656  14244.416867 -20213.499372   -225.750184
PE30 -29211.417202   3169.261943  -3492.715306   -250.458440
PE31  28985.935482  -3984.899979   4531.079635   -491.768890
PE33  12460.080344  10609.399152  24676.024644   -459.704228
PE36   1916.525185 -25189.386424 -15409.309477   -328.207432
PG01  13444.670089 -22393.150925  -3913.653377    438.860533
PG02 -18709.363563  10553.806238 -15039.022722   -650.288442
PG03  10029.390995 -13215.559707 -20819.088924   -108.390756
PG04   3526.926800 -20910.177347 -15938.199757   -191.240384
PG05 -23631.613350   5919.715250  10598.740475    -70.411278
PG06 -13363.008135  -6383.279334 -21982.890732    192.455219
PG07    242.250532 -20624.812241  16832.629268    308.045394
PG08  10777.440638 -11630.670119  21230.625710    -55.000689
PG09  -6365.394021 -24884.662603  -6761.180917   -355.366513
PG10  19461.877637  11695.648101  14159.287168   -312.478853
PG11 -20084.048907   7153.999432 -15836.093869    -98.936956
PG12 -13553.058918  11477.862710 -19969.065029   -166.623216
PG13 -14709.070614   2977.689396  21765.333274    256.942189
PG14 -18381.131221 -12889.195327  14239.696051    -80.274433
PG15  -9501.997754  13547.392657  20314.464647    -86.068197
PG16  25630.028582   -226.690672   7561.820531   -465.594478
PG17 -13267.449223 -21671.646970  -7213.831309    571.209148
PG18   -964.917006  20431.179931  16884.606243    246.332320
PG19 -15658.091421 -15775.624703 -14935.490876    115.073296
PG20 -26357.174715   1757.535523    621.969732    516.836552
PG21  17429.707974 -18360.570195   7529.811840    157.525118
PG22  16439.750270  12829.733987 -16159.803271    209.217115
PG23   8373.377732  14772.574099  20435.062102      4.095743
PG24 -14397.887290  22012.004407    996.564472    275.782561
PG25    427.453546  15497.138915 -21862.228114    281.351649
PG26  25712.333921   5176.410976  -5213.630118    180.719486
PG27  15939.521112    491.772052  21114.824631    105.868106
PG28 -23260.462711 -10189.467151   7891.521792    406.780927
PG29   2372.745914  24787.164743  -9208.554137   -476.521244
PG30  -7727.316556 -14927.691389  20584.124979   -511.538231
PG31  15686.559961   4195.297590 -21215.905079   -163.356333
PG32  16414.229279  18025.093066 -10644.575134    -62.574781
PJ01 -27110.849443  19948.236903  30422.946854    261.635271
PJ02 -34460.833272  15963.419582 -13763.770163     -1.177717
PJ03 -20936.277388  30915.240701 -14868.992757     -0.415025
PR01 -21039.249669 -13392.776849   5381.673406      7.074497
PR02 -14609.268151    564.119614  20926.311098    508.769369
PR03   -130.674111  13332.478201  21801.554960     51.044855
PR04  14208.364341  18368.128455  10596.691707    126.483858
PR05  20687.108516  13456.650091  -6495.585088     87.191524
PR06  14067.672408  -1881.189184 -21210.450358    -31.043235
PR07   -464.201120 -13646.968517 -21496.113644     31.366884
PR08 -14330.033801 -18332.519345 -10363.746985    -63.440925
PR09  23393.197741  -9962.053851   1530.530641     37.916615
PR10  14079.052866 -13790.348217  16227.274839    -79.529240
PR11  -4408.842148  -9998.292168  23054.732894     46.061653
PR12 -20386.756320   -166.729372  15333.115697     17.094740
PR13 -23700.001412   9415.567666   -413.635607    -17.918756
PR14 -12867.779748  13780.216131 -17180.919709     74.022249
PR15   5097.894022   9853.143252 -22955.985606     98.401903
PR17  -6547.488265  24119.512201  -5005.129197    499.023533
PR18   1178.927652  22680.103570  11691.939339    106.261189
PR19   7717.137502  10543.296166  21913.107132   -177.104616
PR20  11388.409771 -11097.301841  19941.859455    -64.394192
PR21   6080.797072 -24521.573542   3605.499020   -275.735028
PR22  -1496.996561 -22120.696516 -12528.865800   -162.817199
PR23  -9790.617847  -3982.152357 -23216.681939    -29.304589
PR24 -11475.229725  12008.095580 -19334.402300     78.895182
EOF
